NORAD_CAT_ID,OBJECT_NAME,OBJECT_TYPE,EPOCH,MEAN_MOTION,ECCENTRICITY,INCLINATION,RA_OF_ASC_NODE,ARG_OF_PERICENTER,MEAN_ANOMALY,BSTAR,MEAN_MOTION_DOT,MEAN_MOTION_DDOT,TLE_LINE0,TLE_LINE1,TLE_LINE2,SEMIMAJOR_AXIS,PERIOD,APOGEE,PERIGEE,DECAYED
51810.0,STARLINK-3613,PAYLOAD,2024-06-18 14:06:15,15.08836875,0.0001127,53.2174,273.4907,89.8598,270.2523,0.00011328,1.515e-05,0.0,0 STARLINK-3613,1 51810U 22017AU  24170.58767697  .00001515  00000-0  11328-3 0  9996,2 51810  53.2174 273.4907 0001127  89.8598 270.2523 15.08836875129104,6917.89,95.438,540.535,538.975,0.0
51810.0,STARLINK-3613,PAYLOAD,2024-06-19 12:21:39,15.08832474,0.0001216,53.2174,269.3302,105.2078,254.9049,8.0031e-05,9.86e-06,0.0,0 STARLINK-3613,1 51810U 22017AU  24171.51504281  .00000986  00000-0  80031-4 0  9997,2 51810  53.2174 269.3302 0001216 105.2078 254.9049 15.08832474129363,6917.903,95.438,540.61,538.927,0.0
51810.0,STARLINK-3613,PAYLOAD,2024-06-19 13:57:02,15.08832305,0.0001211,53.2173,269.0328,105.1183,254.9943,7.6432e-05,9.29e-06,0.0,0 STARLINK-3613,1 51810U 22017AU  24171.58128330  .00000929  00000-0  76432-4 0  9998,2 51810  53.2173 269.0328 0001211 105.1183 254.9943 15.08832305129252,6917.904,95.438,540.607,538.931,0.0
51810.0,STARLINK-3613,PAYLOAD,2024-06-19 15:32:25,15.08833458,0.0001261,53.2175,268.736,107.2815,252.8315,8.4881e-05,1.063e-05,0.0,0 STARLINK-3613,1 51810U 22017AU  24171.64752262  .00001063  00000-0  84881-4 0  9999,2 51810  53.2175 268.7360 0001261 107.2815 252.8315 15.08833458129267,6917.9,95.438,540.638,538.893,0.0
51810.0,STARLINK-3613,PAYLOAD,2024-06-20 13:47:49,15.08842554,0.0001178,53.2172,264.5718,97.012,263.1006,0.0001004,1.31e-05,0.0,0 STARLINK-3613,1 51810U 22017AU  24172.57487825  .00001310  00000-0  10040-3 0  9992,2 51810  53.2172 264.5718 0001178  97.0120 263.1006 15.08842554129402,6917.873,95.437,540.553,538.923,0.0
51810.0,STARLINK-3613,PAYLOAD,2024-06-20 15:23:12,15.08845207,0.0001186,53.2172,264.2744,98.3257,261.787,0.00012011,1.624e-05,0.0,0 STARLINK-3613,1 51810U 22017AU  24172.64111591  .00001624  00000-0  12011-3 0  9992,2 51810  53.2172 264.2744 0001186  98.3257 261.7870 15.08845207129537,6917.864,95.437,540.55,538.909,0.0
51810.0,STARLINK-3613,PAYLOAD,2024-06-21 12:03:13,15.08840259,0.0001221,53.2174,260.4055,110.2458,249.8666,9.5773e-05,1.237e-05,0.0,0 STARLINK-3613,1 51810U 22017AU  24173.50223952  .00001237  00000-0  95773-4 0  9990,2 51810  53.2174 260.4055 0001221 110.2458 249.8666 15.08840259129665,6917.88,95.438,540.589,538.9,0.0
51810.0,STARLINK-3613,PAYLOAD,2024-06-21 13:38:36,15.08839099,0.0001214,53.2172,260.1092,106.4016,253.711,8.0458e-05,9.93e-06,0.0,0 STARLINK-3613,1 51810U 22017AU  24173.56848092  .00000993  00000-0  80458-4 0  9996,2 51810  53.2172 260.1092 0001214 106.4016 253.7110 15.08839099129556,6917.883,95.438,540.588,538.908,0.0
51810.0,STARLINK-3613,PAYLOAD,2024-06-21 15:13:59,15.0884002,0.0001259,53.2173,259.8124,94.5992,265.5144,8.9762e-05,1.141e-05,0.0,0 STARLINK-3613,1 51810U 22017AU  24173.63472092  .00001141  00000-0  89762-4 0  9990,2 51810  53.2173 259.8124 0001259  94.5992 265.5144 15.08840020129562,6917.88,95.438,540.616,538.874,0.0
51810.0,STARLINK-3613,PAYLOAD,2024-06-22 11:54:00,15.08843588,0.0001274,53.2173,255.9462,89.3037,270.8101,2.4698e-05,1.05e-06,0.0,0 STARLINK-3613,1 51810U 22017AU  24174.49584110  .00000105  00000-0  24698-4 0  9996,2 51810  53.2173 255.9462 0001274  89.3037 270.8101 15.08843588129691,6917.869,95.437,540.616,538.853,0.0
51810.0,STARLINK-3613,PAYLOAD,2024-06-23 11:44:47,15.08841262,0.0001248,53.2169,251.4853,91.458,268.6556,7.7389e-05,9.44e-06,0.0,0 STARLINK-3613,1 51810U 22017AU  24175.48944037  .00000944  00000-0  77389-4 0  9990,2 51810  53.2169 251.4853 0001248  91.4580 268.6556 15.08841262129965,6917.877,95.437,540.605,538.878,0.0
51810.0,STARLINK-3613,PAYLOAD,2024-06-23 14:55:33,15.0884189,0.0001245,53.2168,250.8906,92.0611,268.0524,7.9465e-05,9.77e-06,0.0,0 STARLINK-3613,1 51810U 22017AU  24175.62191976  .00000977  00000-0  79465-4 0  9995,2 51810  53.2168 250.8906 0001245  92.0611 268.0524 15.08841890129860,6917.875,95.437,540.601,538.878,0.0
51810.0,STARLINK-3613,PAYLOAD,2024-06-24 11:35:34,15.08841331,0.0001332,53.2171,247.0243,105.3931,254.7209,7.6527e-05,9.3e-06,0.0,0 STARLINK-3613,1 51810U 22017AU  24176.48303898  .00000930  00000-0  76527-4 0  9993,2 51810  53.2171 247.0243 0001332 105.3931 254.7209 15.08841331129992,6917.876,95.437,540.663,538.82,0.0
51810.0,STARLINK-3613,PAYLOAD,2024-06-25 11:26:21,15.08841285,0.0001311,53.2169,242.5643,97.9882,262.1259,5.3245e-05,5.6e-06,0.0,0 STARLINK-3613,1 51810U 22017AU  24177.47663949  .00000560  00000-0  53245-4 0  9990,2 51810  53.2169 242.5643 0001311  97.9882 262.1259 15.08841285130269,6917.876,95.437,540.648,538.835,0.0
51810.0,STARLINK-3613,PAYLOAD,2024-06-26 11:17:09,15.08835809,0.0001325,53.2166,238.099,86.4694,273.645,4.3365e-05,4.02e-06,0.0,0 STARLINK-3613,1 51810U 22017AU  24178.47024359  .00000402  00000-0  43365-4 0  9994,2 51810  53.2166 238.0990 0001325  86.4694 273.6450 15.08835809130412,6917.893,95.438,540.675,538.842,0.0
51810.0,STARLINK-3613,PAYLOAD,2024-06-27 11:07:56,15.08834127,0.0001293,53.2163,233.6461,97.9547,262.1592,1.668e-05,-2.2e-07,0.0,0 STARLINK-3613,1 51810U 22017AU  24179.46384854 -.00000022  00000-0  16680-4 0  9992,2 51810  53.2163 233.6461 0001293  97.9547 262.1592 15.08834127130446,6917.898,95.438,540.658,538.869,0.0
51810.0,STARLINK-3613,PAYLOAD,2024-06-28 10:58:42,15.08844829,0.0001225,53.2156,229.1808,91.6317,268.4815,0.00014483,2.018e-05,0.0,0 STARLINK-3613,1 51810U 22017AU  24180.45744155  .00002018  00000-0  14483-3 0  9991,2 51810  53.2156 229.1808 0001225  91.6317 268.4815 15.08844829130711,6917.866,95.437,540.578,538.883,0.0
51810.0,STARLINK-3613,PAYLOAD,2024-06-29 12:24:53,15.08835128,0.0001173,53.2152,224.4262,92.6859,267.4268,0.00011056,1.472e-05,0.0,0 STARLINK-3613,1 51810U 22017AU  24181.51728981  .00001472  00000-0  11056-3 0  9994,2 51810  53.2152 224.4262 0001173  92.6859 267.4268 15.08835128130873,6917.895,95.438,540.572,538.949,0.0
51810.0,STARLINK-3613,PAYLOAD,2024-06-30 12:15:40,15.08846467,0.0001219,53.2151,219.9632,97.6663,262.4468,4.1595e-05,3.74e-06,0.0,0 STARLINK-3613,1 51810U 22017AU  24182.51088339  .00000374  00000-0  41595-4 0  9993,2 51810  53.2151 219.9632 0001219  97.6663 262.4468 15.08846467130900,6917.861,95.437,540.569,538.882,0.0
51810.0,STARLINK-3613,PAYLOAD,2024-07-01 12:06:27,15.0883823,0.000116,53.214,215.5039,87.8546,272.2579,7.6143e-05,9.24e-06,0.0,0 STARLINK-3613,1 51810U 22017AU  24183.50448695  .00000924  00000-0  76143-4 0  9996,2 51810  53.2140 215.5039 0001160  87.8546 272.2579 15.08838230131178,6917.886,95.438,540.553,538.948,0.0
51810.0,STARLINK-3613,PAYLOAD,2024-07-02 08:46:28,15.08837213,0.0001206,53.2142,211.6376,89.2508,270.8622,-1.2889e-05,-4.93e-06,0.0,0 STARLINK-3613,1 51810U 22017AU  24184.36561144 -.00000493  00000-0 -12889-4 0  9996,2 51810  53.2142 211.6376 0001206  89.2508 270.8622 15.08837213131180,6917.889,95.438,540.588,538.92,0.0
51810.0,STARLINK-3613,PAYLOAD,2024-07-03 02:15:43,15.08836182,0.0001283,53.215,208.3662,88.1973,271.9166,3.8157e-05,3.19e-06,0.0,0 STARLINK-3613,1 51810U 22017AU  24185.09425118  .00000319  00000-0  38157-4 0  9998,2 51810  53.2150 208.3662 0001283  88.1973 271.9166 15.08836182131414,6917.892,95.438,540.645,538.869,0.0
51810.0,STARLINK-3613,PAYLOAD,2024-07-03 18:09:34,15.08840268,0.0001305,53.2155,205.3932,87.3414,272.7727,6.5101e-05,7.48e-06,0.0,0 STARLINK-3613,1 51810U 22017AU  24185.75664812  .00000748  00000-0  65101-4 0  9992,2 51810  53.2155 205.3932 0001305  87.3414 272.7727 15.08840268131391,6917.88,95.438,540.647,538.842,0.0
51810.0,STARLINK-3613,PAYLOAD,2024-07-04 08:28:03,15.08833852,0.0001404,53.2166,202.7189,94.9836,265.1316,4.3943e-05,4.11e-06,0.0,0 STARLINK-3613,1 51810U 22017AU  24186.35281453  .00000411  00000-0  43943-4 0  9992,2 51810  53.2166 202.7189 0001404  94.9836 265.1316 15.08833852131605,6917.899,95.438,540.735,538.793,0.0
51810.0,STARLINK-3613,PAYLOAD,2024-07-04 18:00:21,15.08837484,0.0001447,53.2172,200.9348,93.8107,266.3051,4.8986e-05,4.92e-06,0.0,0 STARLINK-3613,1 51810U 22017AU  24186.75025290  .00000492  00000-0  48986-4 0  9992,2 51810  53.2172 200.9348 0001447  93.8107 266.3051 15.08837484131542,6917.888,95.438,540.754,538.752,0.0
51810.0,STARLINK-3613,PAYLOAD,2024-07-05 09:54:13,15.08840923,0.0001435,53.2168,197.9607,93.137,266.9786,5.3992e-05,5.71e-06,0.0,0 STARLINK-3613,1 51810U 22017AU  24187.41265113  .00000571  00000-0  53992-4 0  9997,2 51810  53.2168 197.9607 0001435  93.1370 266.9786 15.08840923131769,6917.878,95.437,540.735,538.75,0.0
51810.0,STARLINK-3613,PAYLOAD,2024-07-05 17:51:08,15.08844195,0.0001444,53.2166,196.4734,86.7892,273.3266,4.867e-05,4.87e-06,0.0,0 STARLINK-3613,1 51810U 22017AU  24187.74384893  .00000487  00000-0  48670-4 0  9993,2 51810  53.2166 196.4734 0001444  86.7892 273.3266 15.08844195131691,6917.868,95.437,540.732,538.734,0.0
51810.0,STARLINK-3613,PAYLOAD,2024-07-06 08:09:37,15.08838646,0.0001361,53.2161,193.7965,91.2062,268.9086,4.1805e-05,3.77e-06,0.0,0 STARLINK-3613,1 51810U 22017AU  24188.34001274  .00000377  00000-0  41805-4 0  9990,2 51810  53.2161 193.7965 0001361  91.2062 268.9086 15.08838646131784,6917.885,95.438,540.691,538.808,0.0
51810.0,STARLINK-3613,PAYLOAD,2024-07-06 17:41:55,15.08839716,0.0001367,53.2162,192.0125,90.7524,269.3625,3.295e-05,2.37e-06,0.0,0 STARLINK-3613,1 51810U 22017AU  24188.73745181  .00000237  00000-0  32950-4 0  9991,2 51810  53.2162 192.0125 0001367  90.7524 269.3625 15.08839716131961,6917.881,95.438,540.692,538.801,0.0
51810.0,STARLINK-3613,PAYLOAD,2024-07-07 09:35:47,15.08839519,0.0001409,53.2163,189.0389,93.074,267.0414,8.7994e-06,-1.48e-06,0.0,0 STARLINK-3613,1 51810U 22017AU  24189.39985316 -.00000148  00000-0  87994-5 0  9991,2 51810  53.2163 189.0389 0001409  93.0740 267.0414 15.08839519131943,6917.882,95.438,540.722,538.772,0.0
